HORIZONS from Tipsod
Calculated for
Latitude : 33.47 deg N
Longitude: 81.975 deg W
Altitude : 41.45 m
Edgar J. Kaiser, DF2MZ, df2mz@t-online.de
Date	Time(UTC)	 Azimuth (deg)	 Elevation (deg)	 Range (km)	 Range rate (km/s)
$$SOE
 2014-May-11 00:24    267.81553778 048.00056062 0021035705.847 -3.626978
 2014-May-11 00:48    271.17458432 042.98808345 0021030501.574 -3.602617
 2014-May-11 01:12    274.28289868 037.98437711 0021025330.308 -3.581055
 2014-May-11 01:36    277.23627125 033.00032591 0021020188.135 -3.562725
 2014-May-11 02:00    280.10287068 028.04826717 0021015069.661 -3.548187
 2014-May-11 02:24    282.93732881 023.13675950 0021009969.358 -3.538277
 2014-May-11 02:48    285.77945919 018.28398357 0021004879.423 -3.531189
 2014-May-11 03:12    288.66894067 013.49939027 0020999799.535 -3.526846
 2014-May-11 03:36    291.64059422 008.79687856 0020994722.105 -3.528348
 2014-May-11 04:00    294.72991080 004.18921297 0020989637.894 -3.533025
 2014-May-11 04:24    297.96622421 -00.29973563 0020984546.993 -3.540548
 2014-May-11 04:48    301.38528020 -04.65215612 0020979441.116 -3.553877
 2014-May-11 05:12    305.02168610 -08.84383442 0020974311.827 -3.570018
 2014-May-11 05:36    308.91323384 -12.84915729 0020969159.463 -3.588664
 2014-May-11 06:00    313.08978097 -16.63029240 0020963976.473 -3.611170
 2014-May-11 06:24    317.58639503 -20.15235017 0020958759.293 -3.636711
 2014-May-11 06:48    322.43380485 -23.37484748 0020953502.746 -3.665539
 2014-May-11 07:12    327.64385128 -26.24674444 0020948202.542 -3.695439
 2014-May-11 07:36    333.22270473 -28.72021505 0020942859.883 -3.728048
 2014-May-11 08:00    339.15269382 -30.74451402 0020937465.762 -3.763170
 2014-May-11 08:24    345.39437891 -32.27253666 0020932021.952 -3.797195
 2014-May-11 08:48    351.86830188 -33.26168326 0020926529.841 -3.833352
 2014-May-11 09:12    358.48193550 -33.68445127 0020920981.898 -3.871415
 2014-May-11 09:36    005.12258991 -33.52799115 0020915380.167 -3.908896
 2014-May-11 10:00    011.67840169 -32.79645207 0020909724.277 -3.944725
 2014-May-11 10:24    018.03560850 -31.51252452 0020904019.359 -3.980630
 2014-May-11 10:48    024.11478425 -29.71159127 0020898260.063 -4.015714
 2014-May-11 11:12    029.85957858 -27.43878791 0020892454.103 -4.049201
 2014-May-11 11:36    035.24421206 -24.74222178 0020886598.365 -4.080734
 2014-May-11 12:00    040.25611208 -21.67606898 0020880701.589 -4.110567
 2014-May-11 12:24    044.91077043 -18.28728043 0020874759.933 -4.137057
 2014-May-11 12:48    049.23466230 -14.61800627 0020868786.866 -4.159240
 2014-May-11 13:12    053.25298016 -10.71279610 0020862781.323 -4.181556
 2014-May-11 13:36    057.00275964 -06.60424201 0020856743.983 -4.199694
 2014-May-11 14:00    060.51921816 -02.32252129 0020850686.205 -4.213468
 2014-May-11 14:24    063.83942135 002.10930888 0020844609.197 -4.223027
 2014-May-11 14:48    066.99333059 006.66322620 0020838523.887 -4.229031
 2014-May-11 15:12    070.01665960 011.32284564 0020832429.586 -4.232096
 2014-May-11 15:36    072.94274681 016.07148687 0020826335.450 -4.230348
 2014-May-11 16:00    075.80753891 020.89761250 0020820246.183 -4.225769
 2014-May-11 16:24    078.64369393 025.78182401 0020814165.235 -4.216228
 2014-May-11 16:48    081.49373004 030.71502083 0020808103.445 -4.203001
 2014-May-11 17:12    084.40577091 035.68547527 0020802060.593 -4.187527
 2014-May-11 17:36    087.44230248 040.68443564 0020796043.368 -4.167209
 2014-May-11 18:00    090.68017096 045.69225602 0020790059.030 -4.144021
 2014-May-11 18:24    094.23568064 050.69623511 0020784108.586 -4.118091
 2014-May-11 18:48    098.28390573 055.67837230 0020778198.928 -4.089179
 2014-May-11 19:12    103.09563234 060.60068015 0020772331.751 -4.057496
 2014-May-11 19:36    109.14412104 065.41405910 0020766513.340 -4.024803
 2014-May-11 20:00    117.28361490 070.02174868 0020760740.318 -3.990842
 2014-May-11 20:24    129.12736468 074.22753321 0020755019.716 -3.954659
 2014-May-11 20:48    147.38705420 077.59154950 0020749350.899 -3.915717
 2014-May-11 21:12    173.98424066 079.28301661 0020743742.452 -3.878994
 2014-May-11 21:36    202.80060674 078.53170553 0020738179.398 -3.843121
 2014-May-11 22:00    224.46264986 075.71717406 0020732674.262 -3.803960
 2014-May-11 22:24    238.49796411 071.77879024 0020727223.993 -3.767620
 2014-May-11 22:48    247.87247122 067.30049749 0020721823.517 -3.733051
 2014-May-11 23:12    254.62809254 062.55390696 0020716472.805 -3.698665
 2014-May-11 23:36    259.86790499 057.66360168 0020711171.363 -3.666807
 2014-May-12 00:00    264.17975544 052.70204992 0020705912.401 -3.637272
 2014-May-12 00:24    267.90681239 047.70425558 0020700696.020 -3.609505
 2014-May-12 00:48    271.25773285 042.69158860 0020695517.027 -3.585564
 2014-May-12 01:12    274.36219600 037.68810399 0020690369.594 -3.564676
 2014-May-12 01:36    277.31464782 032.70463258 0020685250.760 -3.545882
 2014-May-12 02:00    280.18251870 027.75349219 0020680157.454 -3.531937
 2014-May-12 02:24    283.02000240 022.84329691 0020675078.783 -3.521813
 2014-May-12 02:48    285.86670305 017.99224989 0020670014.632 -3.514618
 2014-May-12 03:12    288.76222425 013.20988780 0020664956.682 -3.511508
 2014-May-12 03:36    291.74137723 008.51019747 0020659901.490 -3.511979
 2014-May-12 04:00    294.83972896 003.90605279 0020654842.182 -3.517409
 2014-May-12 04:24    298.08670409 -00.57850425 0020649771.351 -3.526258
 2014-May-12 04:48    301.51822489 -04.92553325 0020644686.558 -3.538759
 2014-May-12 05:12    305.16905807 -09.11061694 0020639579.725 -3.555127
 2014-May-12 05:36    309.07712392 -13.10784293 0020634447.791 -3.573026
 2014-May-12 06:00    313.27234817 -16.87913353 0020629289.410 -3.595372
 2014-May-12 06:24    317.78980200 -20.38927270 0020624093.118 -3.622743
 2014-May-12 06:48    322.66001090 -23.59744416 0020618855.909 -3.650370
 2014-May-12 07:12    327.89434111 -26.45233973 0020613580.053 -3.681092
 2014-May-12 07:36    333.49812596 -28.90586595 0020608254.365 -3.714117
 2014-May-12 08:00    339.45251485 -30.90721348 0020602883.396 -3.747642
 2014-May-12 08:24    345.71656275 -32.40935738 0020597461.157 -3.784414
 2014-May-12 08:48    352.20911043 -33.37010923 0020591984.283 -3.820924
 2014-May-12 09:12    358.83618197 -33.76262021 0020586456.894 -3.856526
 2014-May-12 09:36    005.48411607 -33.57490376 0020580877.488 -3.893742
 2014-May-12 10:00    012.04081148 -32.81205906 0020575242.918 -3.931315
 2014-May-12 10:24    018.39304411 -31.49774362 0020569555.302 -3.967181
 2014-May-12 10:48    024.46251812 -29.66807638 0020563817.436 -4.001030
 2014-May-12 11:12    030.19428229 -27.36873088 0020558032.334 -4.034279
 2014-May-12 11:36    035.56396652 -24.64807060 0020552198.712 -4.066545
 2014-May-12 12:00    040.56024146 -21.56038149 0020546320.684 -4.096296
 2014-May-12 12:24    045.19952361 -18.15253613 0020540401.381 -4.122114
 2014-May-12 12:48    049.50895824 -14.46650401 0020534448.996 -4.144831
 2014-May-12 13:12    053.51418560 -10.54664441 0020528464.266 -4.166458
 2014-May-12 13:36    057.25248963 -06.42532281 0020522449.597 -4.184183
 2014-May-12 14:00    060.75924973 -02.13248735 0020516413.820 -4.196338
 2014-May-12 14:24    064.07161693 002.30900816 0020510364.143 -4.206823
 2014-May-12 14:48    067.21961086 006.87129610 0020504298.169 -4.213958
 2014-May-12 15:12    070.23903555 011.53814125 0020498227.944 -4.216612
 2014-May-12 15:36    073.16332708 016.29297463 0020492154.325 -4.215137
 2014-May-12 16:00    076.02863367 021.12435192 0020486088.349 -4.208325
 2014-May-12 16:24    078.86790663 026.01290752 0020480034.348 -4.199793
 2014-May-12 16:48    081.72413033 030.94959692 0020473992.945 -4.186499
 2014-May-12 17:12    084.64614556 035.92263059 0020467977.232 -4.169094
 2014-May-12 17:36    087.69754508 040.92318127 0020461985.954 -4.149845
 2014-May-12 18:00    090.95691046 045.93142699 0020456025.679 -4.126613
 2014-May-12 18:24    094.54336705 050.93435427 0020450101.309 -4.099109
 2014-May-12 18:48    098.63679463 055.91337584 0020444220.244 -4.070594
 2014-May-12 19:12    103.51623309 060.82943957 0020438377.998 -4.040604
 2014-May-12 19:36    109.67024530 065.63137615 0020432583.304 -4.006395
 2014-May-12 20:00    117.98125040 070.21809190 0020426839.582 -3.970746
 2014-May-12 20:24    130.10857694 074.38397747 0020421147.555 -3.935916
 2014-May-12 20:48    148.77760183 077.67086774 0020415504.143 -3.898429
 2014-May-12 21:12    175.61869158 079.23497200 0020409920.080 -3.860107
 2014-May-12 21:36    204.06595323 078.35583774 0020404387.034 -3.823547
 2014-May-12 22:00    225.20408777 075.46971010 0020398908.265 -3.785654
 2014-May-12 22:24    238.92308578 071.50054865 0020393484.351 -3.748939
 2014-May-12 22:48    248.13566482 067.00897027 0020388111.320 -3.714347
 2014-May-12 23:12    254.80707029 062.25617516 0020382787.032 -3.679832
 2014-May-12 23:36    260.00096959 057.36278028 0020377513.404 -3.647998
 2014-May-13 00:00    264.28691702 052.39966350 0020372280.799 -3.619095
 2014-May-13 00:24    267.99923153 047.40115346 0020367090.409 -3.590858
 2014-May-13 00:48    271.34208015 042.38831117 0020361939.128 -3.566941
 2014-May-13 01:12    274.44276447 037.38506158 0020356817.619 -3.546647
 2014-May-13 01:36    277.39438959 032.40218235 0020351724.784 -3.528224
 2014-May-13 02:00    280.26363919 027.45200047 0020346656.335 -3.513454
 2014-May-13 02:24    283.10430098 022.54314007 0020341606.037 -3.503018
 2014-May-13 02:48    285.95574674 017.69387137 0020336567.643 -3.496999
 2014-May-13 03:12    288.85750918 012.91380086 0020331534.679 -3.494521
 2014-May-13 03:36    291.84440185 008.21700624 0020326503.422 -3.495607
 2014-May-13 04:00    294.95205975 003.61650842 0020321467.331 -3.499749
 2014-May-13 04:24    298.21005441 -00.86358041 0020316424.145 -3.509292
 2014-May-13 04:48    301.65442934 -05.20506370 0020311360.571 -3.522935
 2014-May-13 05:12    305.32011394 -09.38334040 0020306278.092 -3.536966
$$EOE
